{"type":"FeatureCollection","features":[{"type":"Feature","geometry":{"coordinates":[[[[4.29376,50.88904],[4.29391,50.88716],[4.2942,50.88664],[4.2946,50.88613],[4.29564,50.88539],[4.29657,50.88498],[4.29705,50.88504],[4.2979,50.88351],[4.298,50.88283],[4.2982,50.88251],[4.2982,50.88211],[4.3045,50.8816],[4.3079,50.8811],[4.31333,50.87996],[4.31495,50.87988],[4.31966,50.88023],[4.31972,50.8799],[4.31928,50.87847],[4.32111,50.87773],[4.32067,50.87689],[4.32048,50.87515],[4.32232,50.8742],[4.32337,50.87271],[4.32059,50.87212],[4.32405,50.86697],[4.32485,50.86712],[4.32488,50.86694],[4.32502,50.86697],[4.32522,50.86667],[4.32761,50.86747],[4.32771,50.86738],[4.32803,50.86747],[4.32834,50.86718],[4.32962,50.86759],[4.33233,50.86449],[4.34055,50.87138],[4.3402,50.87164],[4.33982,50.87304],[4.33832,50.87641],[4.33949,50.87659],[4.33932,50.88175],[4.33782,50.88434],[4.33826,50.88455],[4.33833,50.88483],[4.33768,50.88489],[4.33707,50.88697],[4.3347,50.88679],[4.33352,50.88601],[4.33243,50.8856],[4.33232,50.88572],[4.33069,50.88522],[4.33002,50.88517],[4.32748,50.88892],[4.32757,50.88912],[4.32994,50.89011],[4.32968,50.89017],[4.32997,50.89051],[4.32608,50.89114],[4.3276,50.89337],[4.32688,50.89382],[4.32428,50.89409],[4.32294,50.89409],[4.3164,50.893],[4.31418,50.89316],[4.31384,50.89333],[4.30743,50.89099],[4.30578,50.89094],[4.30409,50.89062],[4.30198,50.8904],[4.30116,50.89042],[4.30094,50.89056],[4.29376,50.88904]]]],"type":"MultiPolygon"},"properties":{"name":"Jette","national_code":"21010"}},{"type":"Feature","geometry":{"coordinates":[[[[4.28311,50.85359],[4.28332,50.85328],[4.28636,50.85138],[4.28825,50.84827],[4.28718,50.84787],[4.28628,50.84776],[4.28575,50.84786],[4.2849,50.84838],[4.28398,50.84807],[4.28325,50.847],[4.28464,50.84646],[4.28458,50.8457],[4.28429,50.8454],[4.28463,50.84524],[4.286,50.84516],[4.28871,50.84544],[4.29109,50.8452],[4.29298,50.8453],[4.29296,50.84628],[4.29234,50.8463],[4.29214,50.84647],[4.2904,50.84901],[4.29147,50.84893],[4.29232,50.84901],[4.29241,50.84947],[4.2935,50.84949],[4.29381,50.84798],[4.29424,50.84736],[4.29456,50.84755],[4.29517,50.84761],[4.29688,50.84737],[4.29986,50.84738],[4.29975,50.84919],[4.30048,50.84895],[4.30086,50.84856],[4.3026,50.84851],[4.30293,50.84815],[4.30429,50.84838],[4.30547,50.84908],[4.30706,50.84974],[4.30808,50.84994],[4.30819,50.84982],[4.30963,50.8503],[4.31028,50.85032],[4.31246,50.8497],[4.31368,50.84893],[4.31598,50.84843],[4.32725,50.84499],[4.3281,50.84408],[4.32929,50.84452],[4.33073,50.84387],[4.33077,50.84437],[4.33141,50.84511],[4.3322,50.8468],[4.33265,50.84722],[4.3335,50.84782],[4.3346,50.84807],[4.33563,50.84815],[4.33546,50.84892],[4.33732,50.84852],[4.33769,50.84936],[4.33862,50.85058],[4.34458,50.85685],[4.34439,50.85693],[4.34645,50.85911],[4.34575,50.85941],[4.34582,50.85949],[4.34566,50.85956],[4.34723,50.86116],[4.34847,50.86282],[4.34181,50.86494],[4.34171,50.86512],[4.34357,50.86746],[4.34356,50.86793],[4.34318,50.86835],[4.34372,50.86902],[4.34174,50.87083],[4.34055,50.87138],[4.33233,50.86449],[4.33418,50.86248],[4.33391,50.86224],[4.33505,50.86192],[4.33482,50.86162],[4.33494,50.86109],[4.33604,50.8602],[4.33665,50.86011],[4.33774,50.85947],[4.33685,50.85891],[4.33503,50.85819],[4.33487,50.85834],[4.33462,50.85822],[4.33449,50.85834],[4.33251,50.85744],[4.33274,50.85715],[4.32885,50.85679],[4.32687,50.85678],[4.32548,50.85695],[4.32663,50.85911],[4.32721,50.85988],[4.3269,50.86006],[4.32738,50.86062],[4.32688,50.86113],[4.32263,50.86216],[4.32221,50.86253],[4.3161,50.86125],[4.31211,50.8643],[4.31064,50.86474],[4.31052,50.86454],[4.31015,50.86446],[4.30894,50.86452],[4.30591,50.86419],[4.30637,50.86272],[4.30633,50.86209],[4.30438,50.86168],[4.30447,50.86148],[4.30354,50.86128],[4.30422,50.86104],[4.30522,50.86034],[4.30516,50.86025],[4.30466,50.86055],[4.30378,50.86036],[4.30361,50.8606],[4.30306,50.86053],[4.30217,50.86021],[4.30253,50.85966],[4.30337,50.85985],[4.30421,50.85856],[4.30397,50.85833],[4.30409,50.85803],[4.29946,50.85707],[4.29563,50.85553],[4.29566,50.85536],[4.29361,50.85543],[4.29337,50.85592],[4.29026,50.85535],[4.28998,50.85571],[4.28965,50.85579],[4.28659,50.85467],[4.28448,50.85442],[4.28346,50.85396],[4.28311,50.85359]]]],"type":"MultiPolygon"},"properties":{"name":"Molenbeek-Saint-Jean","national_code":"21012"}},{"type":"Feature","geometry":{"coordinates":[[[[4.35719,50.86031],[4.36805,50.85773],[4.36794,50.85752],[4.36952,50.85718],[4.36969,50.85747],[4.37255,50.85674],[4.38214,50.85187],[4.38394,50.85142],[4.38512,50.8517],[4.38577,50.85147],[4.39304,50.84715],[4.39509,50.84512],[4.39563,50.8443],[4.39602,50.84342],[4.39891,50.84467],[4.39999,50.84362],[4.41084,50.84914],[4.40997,50.85067],[4.41105,50.85075],[4.41112,50.85114],[4.41209,50.85175],[4.41071,50.85302],[4.41309,50.85401],[4.40885,50.85766],[4.40775,50.85738],[4.40647,50.85855],[4.40471,50.8598],[4.40407,50.86002],[4.40424,50.86034],[4.40291,50.86132],[4.39979,50.86407],[4.39706,50.86715],[4.39616,50.86838],[4.3948,50.8717],[4.39319,50.87456],[4.39274,50.87577],[4.39119,50.87787],[4.38839,50.88107],[4.38308,50.87978],[4.38146,50.87899],[4.37968,50.8779],[4.3794,50.87791],[4.37455,50.87537],[4.3725,50.87158],[4.37116,50.87152],[4.36992,50.87127],[4.36826,50.87062],[4.3669,50.86959],[4.36521,50.86947],[4.3649,50.8705],[4.36523,50.87089],[4.36373,50.87126],[4.36293,50.87037],[4.36102,50.86876],[4.35719,50.86031]]]],"type":"MultiPolygon"},"properties":{"name":"Schaerbeek","national_code":"21015"}},{"type":"Feature","geometry":{"coordinates":[[[[4.2792,50.86476],[4.28037,50.86225],[4.28033,50.86149],[4.28078,50.86146],[4.28066,50.86046],[4.28034,50.85991],[4.28233,50.85919],[4.28264,50.85968],[4.28388,50.85924],[4.28345,50.8588],[4.28424,50.8585],[4.28401,50.85831],[4.28697,50.85747],[4.28703,50.8576],[4.28753,50.85691],[4.28838,50.85757],[4.28936,50.85662],[4.28984,50.85587],[4.28965,50.85579],[4.28998,50.85571],[4.29026,50.85535],[4.29337,50.85592],[4.29361,50.85543],[4.29566,50.85536],[4.29563,50.85553],[4.29946,50.85707],[4.30409,50.85803],[4.30397,50.85833],[4.30421,50.85856],[4.30337,50.85985],[4.30253,50.85966],[4.30217,50.86021],[4.30306,50.86053],[4.30361,50.8606],[4.30378,50.86036],[4.30466,50.86055],[4.30516,50.86025],[4.30522,50.86034],[4.30422,50.86104],[4.30354,50.86128],[4.30447,50.86148],[4.30438,50.86168],[4.30633,50.86209],[4.30637,50.86272],[4.30591,50.86419],[4.30709,50.86426],[4.30693,50.86495],[4.30709,50.86514],[4.30712,50.86553],[4.30855,50.86633],[4.30892,50.86662],[4.309,50.86685],[4.31406,50.86723],[4.31399,50.86747],[4.31033,50.86877],[4.31,50.86897],[4.31009,50.86915],[4.30878,50.86932],[4.30625,50.86933],[4.30466,50.869],[4.30442,50.86906],[4.30178,50.87013],[4.29842,50.87181],[4.29716,50.87223],[4.29551,50.87333],[4.2914,50.87529],[4.29204,50.87495],[4.29199,50.8748],[4.29181,50.87478],[4.29175,50.87455],[4.29148,50.87452],[4.29157,50.8744],[4.28805,50.87318],[4.28694,50.87214],[4.28663,50.87203],[4.28585,50.8714],[4.28591,50.87117],[4.28548,50.87083],[4.28557,50.8706],[4.28549,50.87019],[4.28451,50.86948],[4.28404,50.86886],[4.28211,50.86778],[4.28117,50.86705],[4.2806,50.86723],[4.28031,50.86707],[4.27926,50.86571],[4.27926,50.86545],[4.27963,50.86516],[4.2792,50.86476]]]],"type":"MultiPolygon"},"properties":{"name":"Berchem-Sainte-Agathe","national_code":"21003"}},{"type":"Feature","geometry":{"coordinates":[[[[4.38731,50.882],[4.38839,50.88107],[4.39119,50.87787],[4.39274,50.87577],[4.39319,50.87456],[4.3948,50.8717],[4.39616,50.86838],[4.39706,50.86715],[4.39979,50.86407],[4.40291,50.86132],[4.40424,50.86034],[4.40407,50.86002],[4.40471,50.8598],[4.40647,50.85855],[4.40775,50.85738],[4.40885,50.85766],[4.41309,50.85401],[4.41071,50.85302],[4.41172,50.85211],[4.41885,50.85567],[4.42197,50.857],[4.42591,50.86209],[4.42665,50.86286],[4.42227,50.86662],[4.42173,50.86678],[4.42087,50.86771],[4.42588,50.87206],[4.42441,50.87271],[4.42221,50.87336],[4.42154,50.87368],[4.42036,50.8745],[4.4186,50.87527],[4.41765,50.87532],[4.41435,50.87826],[4.41068,50.87697],[4.40993,50.8781],[4.40889,50.87922],[4.40867,50.88036],[4.40734,50.88218],[4.40525,50.88394],[4.40397,50.88469],[4.40403,50.88477],[4.40297,50.88504],[4.4031,50.88526],[4.402,50.88593],[4.38731,50.882]]]],"type":"MultiPolygon"},"properties":{"name":"Evere","national_code":"21006"}},{"type":"Feature","geometry":{"coordinates":[[[[4.40432,50.82703],[4.40563,50.8266],[4.40753,50.82553],[4.41139,50.82299],[4.41172,50.82256],[4.41313,50.82217],[4.41361,50.82227],[4.41373,50.82251],[4.41459,50.82294],[4.41788,50.82162],[4.4187,50.82175],[4.41944,50.82204],[4.42086,50.823],[4.42402,50.82426],[4.42695,50.8258],[4.42812,50.82625],[4.4283,50.82585],[4.42959,50.82619],[4.4305,50.82615],[4.43217,50.8249],[4.4322,50.82509],[4.43362,50.8251],[4.44064,50.8206],[4.44187,50.82143],[4.44268,50.82242],[4.44659,50.82268],[4.44934,50.82199],[4.45048,50.82115],[4.45278,50.82037],[4.4544,50.81886],[4.4547,50.81843],[4.47673,50.8204],[4.46574,50.83554],[4.46817,50.83739],[4.46781,50.83867],[4.46681,50.84015],[4.46725,50.84338],[4.46708,50.84463],[4.4652,50.84427],[4.46399,50.84639],[4.46365,50.84729],[4.46303,50.84831],[4.46249,50.84894],[4.45738,50.8478],[4.45967,50.84544],[4.45898,50.84548],[4.45838,50.84527],[4.45754,50.84526],[4.45723,50.84508],[4.45724,50.84447],[4.45708,50.84411],[4.45592,50.84417],[4.45575,50.84393],[4.45416,50.84416],[4.45248,50.8439],[4.45065,50.84383],[4.44963,50.84345],[4.44966,50.84332],[4.44813,50.84288],[4.44963,50.84161],[4.45177,50.84206],[4.4525,50.84137],[4.45481,50.83989],[4.45145,50.83969],[4.44378,50.8384],[4.44199,50.83829],[4.43919,50.83705],[4.43847,50.83702],[4.4381,50.83624],[4.43818,50.83598],[4.43852,50.83582],[4.43973,50.83568],[4.43988,50.83441],[4.43968,50.83409],[4.43924,50.83378],[4.43687,50.83442],[4.43611,50.83475],[4.43577,50.83454],[4.4345,50.83475],[4.43473,50.83512],[4.43554,50.83758],[4.43403,50.83773],[4.43404,50.83964],[4.43264,50.84],[4.43181,50.84004],[4.43177,50.83952],[4.43142,50.83921],[4.431,50.83931],[4.42603,50.83935],[4.42158,50.83905],[4.41811,50.83851],[4.41188,50.83831],[4.41076,50.83815],[4.40921,50.83846],[4.40852,50.83889],[4.40806,50.83897],[4.40614,50.83834],[4.40519,50.83759],[4.40716,50.83592],[4.40911,50.83461],[4.40972,50.83406],[4.40987,50.83361],[4.40974,50.83214],[4.4099,50.8316],[4.41049,50.83081],[4.4113,50.83045],[4.41221,50.83047],[4.40432,50.82703]]]],"type":"MultiPolygon"},"properties":{"name":"Woluwe-Saint-Pierre","national_code":"21019"}},{"type":"Feature","geometry":{"coordinates":[[[[4.30693,50.86495],[4.3071,50.86426],[4.30894,50.86452],[4.31015,50.86446],[4.31052,50.86454],[4.31064,50.86474],[4.31211,50.8643],[4.3161,50.86125],[4.32221,50.86253],[4.32263,50.86216],[4.32688,50.86113],[4.32738,50.86062],[4.3269,50.86006],[4.32721,50.85988],[4.32663,50.85911],[4.32548,50.85695],[4.32687,50.85678],[4.32885,50.85679],[4.33274,50.85715],[4.33251,50.85744],[4.33449,50.85834],[4.33462,50.85822],[4.33487,50.85834],[4.33503,50.85819],[4.33685,50.85891],[4.33774,50.85947],[4.33665,50.86011],[4.33604,50.8602],[4.33494,50.86109],[4.33482,50.86162],[4.33505,50.86192],[4.33391,50.86224],[4.33418,50.86248],[4.32962,50.86759],[4.32834,50.86718],[4.32803,50.86747],[4.32771,50.86738],[4.32761,50.86747],[4.32513,50.86664],[4.32609,50.86571],[4.32483,50.86522],[4.32289,50.86619],[4.32138,50.8665],[4.31726,50.8671],[4.31406,50.86723],[4.309,50.86685],[4.30892,50.86662],[4.30855,50.86633],[4.30712,50.86553],[4.30709,50.86514],[4.30693,50.86495]]]],"type":"MultiPolygon"},"properties":{"name":"Koekelberg","national_code":"21011"}},{"type":"Feature","geometry":{"coordinates":[[[[4.37912,50.834],[4.38235,50.8329],[4.38005,50.83001],[4.38113,50.82901],[4.38258,50.82808],[4.38309,50.82752],[4.38529,50.82595],[4.38528,50.82585],[4.38784,50.82413],[4.3895,50.82251],[4.39704,50.82624],[4.39934,50.82486],[4.41221,50.83047],[4.4113,50.83045],[4.41049,50.83081],[4.4099,50.8316],[4.40974,50.83214],[4.40987,50.83361],[4.40972,50.83406],[4.40911,50.83461],[4.40716,50.83592],[4.40519,50.83759],[4.40614,50.83834],[4.40762,50.83887],[4.40638,50.83909],[4.40555,50.83884],[4.40476,50.83946],[4.40245,50.84032],[4.40101,50.84061],[4.40149,50.84127],[4.401,50.84248],[4.39891,50.84467],[4.39602,50.84342],[4.39605,50.84317],[4.39333,50.83794],[4.38544,50.83958],[4.38548,50.83946],[4.38024,50.84001],[4.38072,50.83912],[4.38062,50.83786],[4.38031,50.83753],[4.3803,50.83725],[4.38012,50.83705],[4.37966,50.83688],[4.37916,50.83635],[4.37915,50.83615],[4.37956,50.83556],[4.37926,50.83487],[4.37935,50.83457],[4.37912,50.834]]]],"type":"MultiPolygon"},"properties":{"name":"Etterbeek","national_code":"21005"}},{"type":"Feature","geometry":{"coordinates":[[[[4.35563,50.83575],[4.3554,50.83566],[4.35631,50.83473],[4.35687,50.83496],[4.35596,50.83589],[4.35563,50.83575]]],[[[4.32644,50.83076],[4.33471,50.82798],[4.33581,50.82694],[4.33929,50.82498],[4.3412,50.82304],[4.34145,50.82264],[4.34454,50.82112],[4.34529,50.82159],[4.34801,50.82084],[4.35362,50.82057],[4.35392,50.82254],[4.35597,50.82392],[4.35718,50.82433],[4.35701,50.82444],[4.35809,50.82504],[4.35839,50.82483],[4.35831,50.8256],[4.35856,50.82727],[4.35701,50.82816],[4.3576,50.82861],[4.35714,50.82887],[4.3576,50.8292],[4.35844,50.83022],[4.35808,50.83038],[4.35834,50.83061],[4.35791,50.83103],[4.35833,50.83187],[4.35761,50.83226],[4.35761,50.83265],[4.35692,50.83284],[4.35719,50.83365],[4.35548,50.8353],[4.35517,50.83556],[4.34911,50.83306],[4.34834,50.83284],[4.34499,50.8326],[4.34312,50.83295],[4.34282,50.83319],[4.3403,50.84016],[4.34008,50.84013],[4.34004,50.84024],[4.33879,50.84013],[4.33604,50.83894],[4.33588,50.83811],[4.33485,50.8373],[4.33347,50.83661],[4.33311,50.83612],[4.33272,50.83588],[4.33278,50.83544],[4.33224,50.8351],[4.33223,50.83433],[4.33089,50.83328],[4.3307,50.83289],[4.33073,50.83242],[4.33049,50.83217],[4.32947,50.83144],[4.32706,50.83101],[4.32644,50.83076]]]],"type":"MultiPolygon"},"properties":{"name":"Saint-Gilles","national_code":"21013"}},{"type":"Feature","geometry":{"coordinates":[[[[4.30202,50.80404],[4.30229,50.80326],[4.303,50.80237],[4.30337,50.80216],[4.30422,50.80058],[4.3043,50.8002],[4.3042,50.79997],[4.30451,50.79931],[4.30495,50.79875],[4.30515,50.79863],[4.31071,50.79793],[4.31079,50.79767],[4.31108,50.79761],[4.3118,50.79751],[4.31182,50.79797],[4.31221,50.79815],[4.31496,50.79906],[4.31585,50.79922],[4.317,50.79981],[4.31789,50.79979],[4.31891,50.79997],[4.32171,50.80067],[4.3236,50.80312],[4.32432,50.8038],[4.32472,50.80452],[4.32499,50.80548],[4.32792,50.80566],[4.32827,50.80668],[4.32927,50.80636],[4.33036,50.80625],[4.33086,50.80633],[4.33245,50.80795],[4.33553,50.80848],[4.33518,50.80954],[4.33562,50.80964],[4.33656,50.80954],[4.33731,50.8111],[4.33567,50.81208],[4.33478,50.81297],[4.33587,50.81321],[4.33655,50.81374],[4.33731,50.81395],[4.3377,50.815],[4.33799,50.81514],[4.33939,50.81497],[4.33964,50.81506],[4.3407,50.81496],[4.34081,50.81512],[4.341,50.81511],[4.34291,50.81465],[4.34304,50.81429],[4.34407,50.81403],[4.34792,50.81429],[4.34794,50.81476],[4.34782,50.81475],[4.34729,50.81613],[4.35034,50.81569],[4.35065,50.81646],[4.35087,50.81642],[4.35098,50.81655],[4.35105,50.81736],[4.35125,50.81732],[4.35174,50.81793],[4.35163,50.81795],[4.35219,50.81867],[4.3531,50.82024],[4.35334,50.82017],[4.35359,50.82057],[4.34801,50.82084],[4.34529,50.82159],[4.34454,50.82112],[4.34145,50.82264],[4.3412,50.82304],[4.33929,50.82498],[4.33581,50.82694],[4.33471,50.82798],[4.32644,50.83076],[4.32576,50.83025],[4.32539,50.82923],[4.32511,50.82883],[4.32475,50.82868],[4.32411,50.82871],[4.32378,50.8286],[4.3235,50.82819],[4.32178,50.82692],[4.32144,50.82647],[4.32144,50.82619],[4.32156,50.8262],[4.32099,50.82527],[4.32105,50.82509],[4.32083,50.82465],[4.32012,50.8242],[4.31956,50.82403],[4.31932,50.82362],[4.31902,50.82349],[4.31795,50.82237],[4.31446,50.82108],[4.31331,50.82084],[4.31299,50.82039],[4.31271,50.82025],[4.31097,50.82007],[4.31074,50.81983],[4.31093,50.819],[4.31026,50.81813],[4.30804,50.8172],[4.30804,50.81698],[4.30826,50.81678],[4.30811,50.81632],[4.31026,50.81539],[4.31002,50.81501],[4.31033,50.8146],[4.31077,50.8143],[4.31046,50.81368],[4.30981,50.81309],[4.30848,50.81253],[4.30835,50.81226],[4.30645,50.81244],[4.30566,50.81097],[4.30573,50.81045],[4.30545,50.8092],[4.30451,50.80918],[4.30434,50.80906],[4.304,50.80826],[4.30332,50.80717],[4.30304,50.80535],[4.30227,50.80453],[4.30202,50.80404]]]],"type":"MultiPolygon"},"properties":{"name":"Forest","national_code":"21007"}},{"type":"Feature","geometry":{"coordinates":[[[[4.39426,50.81729],[4.39656,50.81542],[4.39804,50.81329],[4.39835,50.81333],[4.39976,50.81397],[4.40114,50.81399],[4.40265,50.81463],[4.40363,50.81482],[4.40631,50.81502],[4.40629,50.81396],[4.40646,50.81307],[4.40636,50.81238],[4.40926,50.81247],[4.41259,50.81331],[4.41437,50.81322],[4.4147,50.81263],[4.41496,50.81252],[4.41635,50.81227],[4.41806,50.81241],[4.41812,50.812],[4.4193,50.81057],[4.42152,50.81056],[4.42244,50.81098],[4.42847,50.81001],[4.42867,50.80973],[4.42848,50.8089],[4.42929,50.80786],[4.42901,50.80701],[4.42906,50.8067],[4.42886,50.80637],[4.42834,50.80603],[4.42824,50.80571],[4.42832,50.80516],[4.42946,50.80477],[4.42915,50.80414],[4.42941,50.80408],[4.42924,50.80391],[4.43209,50.80255],[4.44352,50.79756],[4.44874,50.79807],[4.45114,50.79876],[4.45532,50.79197],[4.46191,50.79054],[4.46656,50.79046],[4.47032,50.78978],[4.48227,50.79299],[4.48024,50.79391],[4.48061,50.79423],[4.44718,50.8083],[4.44915,50.80863],[4.45025,50.80868],[4.45158,50.80833],[4.45282,50.8085],[4.45483,50.8101],[4.45526,50.81019],[4.45657,50.81004],[4.4576,50.8102],[4.45789,50.81043],[4.45784,50.81066],[4.45487,50.81049],[4.45288,50.8091],[4.45194,50.80893],[4.44953,50.80973],[4.44892,50.81017],[4.4478,50.81133],[4.45058,50.81314],[4.45175,50.81344],[4.45202,50.81372],[4.45273,50.81402],[4.45419,50.81505],[4.45522,50.81516],[4.45756,50.81632],[4.45653,50.81703],[4.45521,50.81772],[4.4544,50.81886],[4.45278,50.82037],[4.45048,50.82115],[4.44934,50.82199],[4.44659,50.82268],[4.44268,50.82242],[4.44187,50.82143],[4.44064,50.8206],[4.43362,50.8251],[4.4322,50.82509],[4.43217,50.8249],[4.4305,50.82615],[4.42959,50.82619],[4.4283,50.82585],[4.42812,50.82625],[4.42695,50.8258],[4.42402,50.82426],[4.42086,50.823],[4.41892,50.82181],[4.41772,50.82164],[4.41459,50.82294],[4.41373,50.82251],[4.41361,50.82227],[4.41313,50.82217],[4.41172,50.82256],[4.41139,50.82299],[4.40753,50.82553],[4.40563,50.8266],[4.40432,50.82703],[4.39934,50.82486],[4.39704,50.82624],[4.39602,50.82573],[4.40282,50.82097],[4.40326,50.82031],[4.4034,50.81955],[4.40326,50.81897],[4.40285,50.81827],[4.40151,50.81741],[4.40005,50.81702],[4.39833,50.81701],[4.3971,50.81719],[4.39707,50.81706],[4.39761,50.81644],[4.3971,50.81628],[4.39617,50.81688],[4.39538,50.81765],[4.39426,50.81729]]]],"type":"MultiPolygon"},"properties":{"name":"Auderghem","national_code":"21002"}},{"type":"Feature","geometry":{"coordinates":[[[[4.35544,50.85615],[4.36838,50.85255],[4.36972,50.84742],[4.3696,50.84719],[4.36986,50.84713],[4.37325,50.84729],[4.37392,50.8479],[4.37524,50.84762],[4.3757,50.84846],[4.37596,50.84856],[4.37737,50.84903],[4.37759,50.84875],[4.37898,50.84901],[4.37894,50.84988],[4.3796,50.85002],[4.38117,50.85065],[4.38408,50.85143],[4.38214,50.85187],[4.37255,50.85674],[4.36969,50.85747],[4.36952,50.85718],[4.36794,50.85752],[4.36805,50.85773],[4.35719,50.86031],[4.35668,50.85935],[4.3566,50.85775],[4.35546,50.85655],[4.35525,50.8562],[4.35544,50.85615]]]],"type":"MultiPolygon"},"properties":{"name":"Saint-Josse-ten-Noode","national_code":"21014"}},{"type":"Feature","geometry":{"coordinates":[[[[4.34729,50.81613],[4.34782,50.81475],[4.34794,50.81476],[4.34792,50.81429],[4.35752,50.81468],[4.35731,50.81543],[4.35766,50.81544],[4.35758,50.81572],[4.35796,50.81576],[4.35778,50.81642],[4.35941,50.81665],[4.35946,50.8165],[4.36049,50.81668],[4.36179,50.81622],[4.36236,50.81632],[4.36262,50.81578],[4.36361,50.81583],[4.36634,50.81663],[4.36691,50.81692],[4.36732,50.81668],[4.36729,50.81652],[4.3678,50.81635],[4.36786,50.81619],[4.36807,50.81622],[4.36814,50.81605],[4.36755,50.81594],[4.36812,50.81486],[4.37067,50.81527],[4.37029,50.81717],[4.36965,50.81921],[4.36644,50.82094],[4.36687,50.82253],[4.36722,50.82299],[4.36501,50.82315],[4.3656,50.82348],[4.36433,50.82412],[4.36495,50.82451],[4.36456,50.82497],[4.36341,50.82542],[4.36334,50.82598],[4.36308,50.82615],[4.36253,50.82642],[4.36209,50.82625],[4.3617,50.82653],[4.36225,50.82682],[4.35834,50.83061],[4.35808,50.83038],[4.35844,50.83022],[4.3576,50.8292],[4.35714,50.82887],[4.3576,50.82861],[4.35701,50.82816],[4.35856,50.82727],[4.35831,50.8256],[4.35839,50.82483],[4.35809,50.82504],[4.35701,50.82444],[4.35718,50.82433],[4.35597,50.82392],[4.35392,50.82254],[4.35362,50.82057],[4.35334,50.82017],[4.3531,50.82024],[4.35219,50.81867],[4.35163,50.81795],[4.35174,50.81793],[4.35125,50.81732],[4.35105,50.81736],[4.35098,50.81655],[4.35087,50.81642],[4.35065,50.81646],[4.35034,50.81569],[4.34729,50.81613]]],[[[4.35619,50.83581],[4.35609,50.83577],[4.35687,50.83496],[4.35631,50.83473],[4.35735,50.83372],[4.3588,50.83352],[4.35994,50.8324],[4.3597,50.83222],[4.36066,50.83171],[4.36037,50.8315],[4.36328,50.83017],[4.36407,50.83023],[4.3641,50.83004],[4.36441,50.83002],[4.36548,50.83041],[4.36642,50.82941],[4.36516,50.82893],[4.36551,50.82855],[4.36471,50.82764],[4.36679,50.82624],[4.36695,50.82606],[4.36685,50.826],[4.36754,50.82559],[4.36711,50.82531],[4.36874,50.82474],[4.36851,50.82446],[4.36948,50.8241],[4.37046,50.824],[4.37359,50.81976],[4.37729,50.81602],[4.37914,50.81385],[4.3826,50.81585],[4.38288,50.81561],[4.38358,50.81462],[4.38383,50.81354],[4.38506,50.81179],[4.38537,50.81053],[4.38685,50.80827],[4.3875,50.80544],[4.3904,50.80221],[4.39366,50.80069],[4.39706,50.80188],[4.39674,50.80268],[4.39646,50.80301],[4.3964,50.80346],[4.39678,50.80409],[4.39726,50.80611],[4.39735,50.80694],[4.39726,50.80721],[4.39739,50.80768],[4.39733,50.80869],[4.39675,50.80909],[4.39426,50.81001],[4.39353,50.81106],[4.39224,50.81209],[4.39665,50.81312],[4.39804,50.81329],[4.39656,50.81542],[4.39426,50.81729],[4.39538,50.81765],[4.39617,50.81688],[4.3971,50.81628],[4.39761,50.81644],[4.39707,50.81706],[4.3971,50.81719],[4.3973,50.81724],[4.39833,50.81701],[4.39923,50.81697],[4.40005,50.81702],[4.40151,50.81741],[4.40285,50.81827],[4.40337,50.81931],[4.40326,50.82031],[4.40257,50.8212],[4.39596,50.82577],[4.3895,50.82251],[4.38933,50.82261],[4.38784,50.82413],[4.38528,50.82585],[4.38529,50.82595],[4.38309,50.82752],[4.38258,50.82808],[4.38113,50.82901],[4.38005,50.83001],[4.38235,50.8329],[4.37912,50.834],[4.37935,50.83457],[4.37926,50.83487],[4.37956,50.83556],[4.37915,50.83615],[4.37916,50.83635],[4.3796,50.83683],[4.37869,50.83638],[4.37751,50.8362],[4.37757,50.83606],[4.37675,50.83593],[4.3768,50.83579],[4.3746,50.83588],[4.37458,50.83597],[4.3758,50.83611],[4.37622,50.83731],[4.37507,50.83805],[4.37599,50.83984],[4.37505,50.84018],[4.37282,50.84063],[4.37212,50.8393],[4.36868,50.84001],[4.36831,50.8393],[4.36757,50.83891],[4.36709,50.83931],[4.36594,50.83874],[4.3628,50.83867],[4.35619,50.83581]]]],"type":"MultiPolygon"},"properties":{"name":"Ixelles","national_code":"21009"}},{"type":"Feature","geometry":{"coordinates":[[[[4.39224,50.81209],[4.39353,50.81106],[4.39426,50.81001],[4.39675,50.80909],[4.39733,50.80869],[4.39739,50.80768],[4.39726,50.80721],[4.39735,50.80694],[4.39726,50.80611],[4.39678,50.80409],[4.3964,50.80346],[4.39646,50.80301],[4.39674,50.80268],[4.39706,50.80188],[4.39686,50.80176],[4.39714,50.80134],[4.39996,50.79876],[4.401,50.79756],[4.40089,50.79676],[4.40067,50.79653],[4.40078,50.79652],[4.4011,50.79405],[4.40159,50.79391],[4.4019,50.79342],[4.40269,50.79363],[4.40331,50.7936],[4.40342,50.79292],[4.40354,50.79267],[4.40374,50.79259],[4.40364,50.79215],[4.40185,50.79165],[4.40255,50.79143],[4.40096,50.7905],[4.39681,50.78926],[4.39699,50.78822],[4.40019,50.7848],[4.40631,50.77861],[4.40955,50.77545],[4.41135,50.77391],[4.41261,50.77232],[4.42532,50.77549],[4.43316,50.77813],[4.43459,50.77648],[4.45144,50.78259],[4.46337,50.7879],[4.47032,50.78978],[4.46656,50.79046],[4.46191,50.79054],[4.45532,50.79197],[4.45114,50.79876],[4.44874,50.79807],[4.44352,50.79756],[4.43209,50.80255],[4.42924,50.80391],[4.42941,50.80408],[4.42915,50.80414],[4.42946,50.80477],[4.42832,50.80516],[4.42824,50.80571],[4.42834,50.80603],[4.42886,50.80637],[4.42906,50.8067],[4.42901,50.80701],[4.42929,50.80786],[4.42848,50.8089],[4.42867,50.80973],[4.42847,50.81001],[4.42244,50.81098],[4.42152,50.81056],[4.4193,50.81057],[4.41812,50.812],[4.41806,50.81241],[4.41635,50.81227],[4.41496,50.81252],[4.4147,50.81263],[4.41437,50.81322],[4.41259,50.81331],[4.40926,50.81247],[4.40636,50.81238],[4.40646,50.81307],[4.40629,50.81396],[4.40631,50.81502],[4.40363,50.81482],[4.40265,50.81463],[4.40114,50.81399],[4.39976,50.81397],[4.39835,50.81333],[4.39665,50.81312],[4.39224,50.81209]]]],"type":"MultiPolygon"},"properties":{"name":"Watermael-Boitsfort","national_code":"21017"}},{"type":"Feature","geometry":{"coordinates":[[[[4.24377,50.81958],[4.24438,50.81954],[4.24493,50.81773],[4.24682,50.81754],[4.24652,50.81908],[4.24978,50.81946],[4.25132,50.81722],[4.25632,50.81741],[4.25834,50.81519],[4.25915,50.81372],[4.25987,50.81126],[4.26007,50.81107],[4.26106,50.81111],[4.26128,50.81123],[4.26189,50.81117],[4.26178,50.81105],[4.26217,50.8111],[4.26277,50.81134],[4.26286,50.8115],[4.26414,50.81153],[4.26564,50.81181],[4.26626,50.81152],[4.26662,50.81161],[4.26744,50.81156],[4.26809,50.81173],[4.26815,50.81202],[4.27294,50.81216],[4.27491,50.81153],[4.2759,50.81074],[4.27603,50.81039],[4.27648,50.81003],[4.27627,50.80972],[4.27704,50.80824],[4.27819,50.80828],[4.27892,50.80806],[4.279,50.80783],[4.27929,50.8076],[4.27955,50.80768],[4.27968,50.80754],[4.28027,50.80751],[4.28101,50.80761],[4.28277,50.80714],[4.28357,50.80733],[4.28365,50.80707],[4.28382,50.80706],[4.28547,50.80754],[4.28649,50.80829],[4.2885,50.80844],[4.29138,50.80888],[4.29256,50.80862],[4.29311,50.80892],[4.29359,50.80844],[4.29354,50.80833],[4.29399,50.8082],[4.29449,50.80836],[4.29474,50.80873],[4.29532,50.80906],[4.29584,50.80915],[4.29606,50.80945],[4.29582,50.80971],[4.29646,50.80973],[4.29642,50.80998],[4.29736,50.80982],[4.29736,50.81],[4.29768,50.81007],[4.29774,50.81033],[4.2979,50.81033],[4.29785,50.8109],[4.29815,50.81155],[4.29832,50.81166],[4.29928,50.81163],[4.29913,50.81215],[4.29943,50.81221],[4.29936,50.81235],[4.29947,50.81242],[4.29986,50.81252],[4.29973,50.81274],[4.29998,50.81296],[4.3015,50.81278],[4.3018,50.81288],[4.30186,50.81305],[4.30835,50.81226],[4.30848,50.81253],[4.30961,50.81294],[4.31046,50.81368],[4.31077,50.81437],[4.31033,50.8146],[4.31002,50.81501],[4.31026,50.81539],[4.30811,50.81632],[4.30826,50.81678],[4.30802,50.81709],[4.30804,50.8172],[4.30886,50.81761],[4.30977,50.81786],[4.31026,50.81813],[4.31093,50.819],[4.31075,50.81988],[4.31097,50.82007],[4.31271,50.82025],[4.31299,50.82039],[4.31331,50.82084],[4.31446,50.82108],[4.31795,50.82237],[4.31902,50.82349],[4.31932,50.82362],[4.31956,50.82403],[4.32012,50.8242],[4.32083,50.82465],[4.32105,50.82509],[4.32099,50.82527],[4.32156,50.8262],[4.32144,50.82619],[4.32144,50.82647],[4.32178,50.82692],[4.3235,50.82819],[4.32378,50.8286],[4.32486,50.8287],[4.3252,50.82892],[4.32576,50.83025],[4.32611,50.83056],[4.32657,50.83089],[4.32947,50.83144],[4.33049,50.83217],[4.33073,50.83242],[4.3307,50.83289],[4.33089,50.83328],[4.33223,50.83433],[4.33224,50.8351],[4.33278,50.83544],[4.33272,50.83588],[4.33311,50.83612],[4.33347,50.83661],[4.33485,50.8373],[4.33588,50.83811],[4.33604,50.83894],[4.33879,50.84013],[4.34011,50.84025],[4.33834,50.84481],[4.33788,50.84645],[4.33605,50.84634],[4.33563,50.84815],[4.3346,50.84807],[4.3335,50.84782],[4.33227,50.84689],[4.33187,50.84627],[4.33141,50.84511],[4.33077,50.84437],[4.33073,50.84387],[4.32929,50.84452],[4.3281,50.84408],[4.32725,50.84499],[4.31598,50.84843],[4.31368,50.84893],[4.31246,50.8497],[4.31028,50.85032],[4.30963,50.8503],[4.30819,50.84982],[4.30808,50.84994],[4.30706,50.84974],[4.30547,50.84908],[4.30429,50.84838],[4.30293,50.84815],[4.3026,50.84851],[4.30086,50.84856],[4.30048,50.84895],[4.29975,50.84919],[4.29986,50.84738],[4.29688,50.84737],[4.29517,50.84761],[4.29456,50.84755],[4.29424,50.84736],[4.29381,50.84798],[4.2935,50.84949],[4.29241,50.84947],[4.29232,50.84901],[4.29147,50.84893],[4.2904,50.84901],[4.29214,50.84647],[4.29234,50.8463],[4.29296,50.84628],[4.29298,50.8453],[4.29109,50.8452],[4.28871,50.84544],[4.286,50.84516],[4.28463,50.84524],[4.2847,50.84494],[4.28452,50.84384],[4.28362,50.8438],[4.28379,50.84195],[4.28331,50.84183],[4.28372,50.84066],[4.28291,50.84057],[4.28302,50.84018],[4.28161,50.84006],[4.28173,50.83953],[4.28275,50.83961],[4.28294,50.83785],[4.27978,50.83795],[4.27857,50.83781],[4.27765,50.83785],[4.27516,50.83893],[4.2743,50.83859],[4.27323,50.83868],[4.273,50.83801],[4.27187,50.83702],[4.2719,50.83621],[4.2692,50.83635],[4.26792,50.83629],[4.26455,50.83587],[4.26444,50.83553],[4.26356,50.83557],[4.26348,50.83534],[4.26266,50.83544],[4.26188,50.83518],[4.26029,50.83539],[4.25877,50.83598],[4.25636,50.83493],[4.25467,50.83352],[4.2548,50.83311],[4.25516,50.8329],[4.25455,50.83257],[4.25443,50.83228],[4.25521,50.83144],[4.25567,50.8304],[4.25564,50.82932],[4.25509,50.8293],[4.25504,50.82878],[4.25552,50.82845],[4.25483,50.82702],[4.25431,50.82629],[4.25316,50.82515],[4.25118,50.82422],[4.25084,50.82438],[4.2464,50.82112],[4.24377,50.81958]]]],"type":"MultiPolygon"},"properties":{"name":"Anderlecht","national_code":"21001"}},{"type":"Feature","geometry":{"coordinates":[[[[4.29146,50.87528],[4.29551,50.87333],[4.29716,50.87223],[4.29842,50.87181],[4.30178,50.87013],[4.30442,50.86906],[4.30466,50.869],[4.30625,50.86933],[4.30878,50.86932],[4.31009,50.86915],[4.31,50.86897],[4.31033,50.86877],[4.31399,50.86747],[4.31406,50.86723],[4.31726,50.8671],[4.32138,50.8665],[4.32289,50.86619],[4.32483,50.86522],[4.32609,50.86571],[4.32513,50.86664],[4.32522,50.86667],[4.32502,50.86697],[4.32488,50.86694],[4.32485,50.86712],[4.32405,50.86697],[4.32059,50.87212],[4.32337,50.87271],[4.32232,50.8742],[4.32048,50.87515],[4.32067,50.87689],[4.32111,50.87773],[4.31928,50.87847],[4.31972,50.8799],[4.31966,50.88023],[4.31495,50.87988],[4.31333,50.87996],[4.3079,50.8811],[4.3045,50.8816],[4.2982,50.88211],[4.29883,50.88044],[4.2989,50.87993],[4.29821,50.87898],[4.29569,50.87764],[4.29428,50.87713],[4.29438,50.87691],[4.2946,50.8769],[4.29457,50.87683],[4.29414,50.87662],[4.29402,50.87642],[4.29366,50.87639],[4.2937,50.8762],[4.29305,50.87584],[4.29305,50.87573],[4.29146,50.87528]]]],"type":"MultiPolygon"},"properties":{"name":"Ganshoren","national_code":"21008"}},{"type":"Feature","geometry":{"coordinates":[[[[4.39999,50.84362],[4.401,50.84248],[4.40149,50.84127],[4.40101,50.84061],[4.40245,50.84032],[4.40476,50.83946],[4.40555,50.83884],[4.40638,50.83909],[4.40762,50.83887],[4.40824,50.83896],[4.40921,50.83846],[4.41076,50.83815],[4.41188,50.83831],[4.41811,50.83851],[4.42158,50.83905],[4.42603,50.83935],[4.431,50.83931],[4.43142,50.83921],[4.43177,50.83952],[4.43181,50.84004],[4.43335,50.83986],[4.43404,50.83964],[4.43403,50.83773],[4.43554,50.83758],[4.43473,50.83512],[4.4345,50.83475],[4.43577,50.83454],[4.43611,50.83475],[4.43687,50.83442],[4.43924,50.83378],[4.43968,50.83409],[4.43988,50.83441],[4.43973,50.83568],[4.43852,50.83582],[4.43818,50.83598],[4.4381,50.83624],[4.43847,50.83702],[4.43919,50.83705],[4.44199,50.83829],[4.44378,50.8384],[4.45145,50.83969],[4.45481,50.83989],[4.4525,50.84137],[4.45177,50.84206],[4.44963,50.84161],[4.44813,50.84288],[4.44966,50.84332],[4.44963,50.84345],[4.45065,50.84383],[4.45248,50.8439],[4.45416,50.84416],[4.45575,50.84393],[4.45592,50.84417],[4.45708,50.84411],[4.45724,50.84447],[4.45723,50.84508],[4.45754,50.84526],[4.45838,50.84527],[4.45898,50.84548],[4.45967,50.84544],[4.45738,50.8478],[4.46178,50.84879],[4.46098,50.85096],[4.46131,50.85102],[4.4613,50.85185],[4.4583,50.8527],[4.45633,50.85283],[4.45354,50.8535],[4.45053,50.85352],[4.44842,50.85421],[4.44811,50.85417],[4.44629,50.85512],[4.44596,50.85547],[4.44606,50.85602],[4.44633,50.85624],[4.44605,50.85688],[4.44556,50.85716],[4.44435,50.85748],[4.44501,50.85814],[4.43912,50.86045],[4.43737,50.85851],[4.42976,50.86121],[4.43102,50.86249],[4.42868,50.86303],[4.42822,50.86303],[4.42665,50.86286],[4.42591,50.86209],[4.42197,50.857],[4.41885,50.85567],[4.41172,50.85211],[4.41209,50.85175],[4.41112,50.85114],[4.41105,50.85075],[4.40997,50.85067],[4.41084,50.84914],[4.39999,50.84362]]]],"type":"MultiPolygon"},"properties":{"name":"Woluwe-Saint-Lambert","national_code":"21018"}},{"type":"Feature","geometry":{"coordinates":[[[[4.31461,50.89361],[4.31384,50.89333],[4.31418,50.89316],[4.3164,50.893],[4.32294,50.89409],[4.32428,50.89409],[4.32688,50.89382],[4.3276,50.89337],[4.32608,50.89114],[4.32997,50.89051],[4.32968,50.89017],[4.32994,50.89011],[4.32757,50.88912],[4.32748,50.88892],[4.33002,50.88517],[4.33069,50.88522],[4.33232,50.88572],[4.33243,50.8856],[4.33352,50.88601],[4.3347,50.88679],[4.33707,50.88697],[4.33768,50.88489],[4.33833,50.88483],[4.33826,50.88455],[4.33782,50.88434],[4.33932,50.88175],[4.33949,50.87659],[4.33832,50.87641],[4.33982,50.87304],[4.3402,50.87164],[4.34065,50.8713],[4.34174,50.87083],[4.34372,50.86902],[4.34318,50.86835],[4.34356,50.86793],[4.34357,50.86746],[4.34171,50.86512],[4.34181,50.86494],[4.34847,50.86282],[4.34723,50.86116],[4.34566,50.85956],[4.34582,50.85949],[4.34575,50.85941],[4.34645,50.85911],[4.34439,50.85693],[4.34458,50.85685],[4.33862,50.85058],[4.33769,50.84936],[4.33732,50.84852],[4.33546,50.84892],[4.33605,50.84634],[4.33788,50.84645],[4.33834,50.84481],[4.34008,50.84013],[4.3403,50.84016],[4.34288,50.83309],[4.34312,50.83295],[4.34499,50.8326],[4.34834,50.83284],[4.34911,50.83306],[4.35517,50.83556],[4.35719,50.83365],[4.35692,50.83284],[4.35761,50.83265],[4.35761,50.83226],[4.35833,50.83187],[4.35791,50.83103],[4.36225,50.82682],[4.3617,50.82653],[4.36209,50.82625],[4.36253,50.82642],[4.36308,50.82615],[4.36334,50.82598],[4.36341,50.82542],[4.36456,50.82497],[4.36495,50.82451],[4.36433,50.82412],[4.3656,50.82348],[4.36501,50.82315],[4.36722,50.82299],[4.36687,50.82253],[4.36644,50.82094],[4.36965,50.81921],[4.37029,50.81717],[4.37067,50.81527],[4.36812,50.81486],[4.36836,50.81397],[4.36784,50.81389],[4.36914,50.81055],[4.36975,50.80945],[4.37044,50.80919],[4.37108,50.80875],[4.37267,50.80832],[4.37299,50.80755],[4.37277,50.80671],[4.37175,50.80665],[4.3722,50.80563],[4.37239,50.80439],[4.37282,50.80314],[4.37336,50.80322],[4.37356,50.80271],[4.37323,50.80265],[4.37343,50.80237],[4.37397,50.80193],[4.37546,50.80127],[4.3758,50.80098],[4.37794,50.80103],[4.37799,50.80028],[4.37784,50.8002],[4.37538,50.79973],[4.4008,50.79634],[4.40078,50.79652],[4.40067,50.79653],[4.40089,50.79676],[4.401,50.79756],[4.39996,50.79876],[4.39714,50.80134],[4.39686,50.80176],[4.39366,50.80069],[4.3904,50.80221],[4.38685,50.80544],[4.38537,50.81053],[4.38506,50.81179],[4.38383,50.81354],[4.38358,50.81462],[4.38275,50.81573],[4.38256,50.81583],[4.37914,50.81385],[4.37729,50.81602],[4.37359,50.81976],[4.37046,50.824],[4.36948,50.8241],[4.36851,50.82446],[4.36874,50.82474],[4.36711,50.82531],[4.36754,50.82559],[4.36685,50.826],[4.36695,50.82606],[4.36679,50.82624],[4.36471,50.82764],[4.36551,50.82855],[4.36516,50.82893],[4.36642,50.82941],[4.36548,50.83041],[4.36441,50.83002],[4.3641,50.83004],[4.36407,50.83023],[4.36328,50.83017],[4.36037,50.8315],[4.36066,50.83171],[4.3597,50.83222],[4.35994,50.8324],[4.3588,50.83352],[4.35735,50.83372],[4.3554,50.83566],[4.35596,50.83589],[4.35609,50.83577],[4.3628,50.83867],[4.36594,50.83874],[4.36709,50.83931],[4.36757,50.83891],[4.36831,50.8393],[4.36868,50.84001],[4.37212,50.8393],[4.37282,50.84063],[4.37505,50.84018],[4.37599,50.83984],[4.37507,50.83805],[4.37622,50.83733],[4.3761,50.83673],[4.37579,50.8361],[4.37458,50.83597],[4.3746,50.83588],[4.3768,50.83579],[4.37675,50.83593],[4.37757,50.83606],[4.37751,50.8362],[4.37869,50.83638],[4.37939,50.83681],[4.38012,50.83705],[4.3803,50.83725],[4.38031,50.83753],[4.38062,50.83786],[4.38072,50.83912],[4.38024,50.84001],[4.38548,50.83946],[4.38544,50.83958],[4.39333,50.83794],[4.39605,50.84317],[4.39538,50.84474],[4.39422,50.84606],[4.393,50.84718],[4.39128,50.8481],[4.38631,50.8512],[4.38512,50.8517],[4.38117,50.85065],[4.3796,50.85002],[4.37894,50.84988],[4.37898,50.84901],[4.37759,50.84875],[4.37737,50.84903],[4.37596,50.84856],[4.3757,50.84846],[4.37524,50.84762],[4.37392,50.8479],[4.37325,50.84729],[4.3696,50.84719],[4.36972,50.84742],[4.36838,50.85255],[4.35525,50.8562],[4.35581,50.85697],[4.35658,50.8577],[4.35674,50.85954],[4.3583,50.86261],[4.36102,50.86876],[4.36293,50.87037],[4.36373,50.87126],[4.36523,50.87089],[4.3649,50.8705],[4.36521,50.86947],[4.3669,50.86959],[4.36826,50.87062],[4.36992,50.87127],[4.37116,50.87152],[4.3725,50.87158],[4.37455,50.87537],[4.3794,50.87791],[4.37968,50.8779],[4.38146,50.87899],[4.38308,50.87978],[4.38839,50.88107],[4.38731,50.882],[4.402,50.88593],[4.4031,50.88526],[4.40297,50.88504],[4.40403,50.88477],[4.40397,50.88469],[4.40525,50.88394],[4.40734,50.88218],[4.40867,50.88036],[4.40889,50.87922],[4.40993,50.8781],[4.41068,50.87697],[4.41435,50.87826],[4.41765,50.87532],[4.4186,50.87527],[4.42036,50.8745],[4.42154,50.87368],[4.42221,50.87336],[4.42441,50.87271],[4.42572,50.87213],[4.42756,50.875],[4.4288,50.87629],[4.42723,50.87698],[4.42734,50.87747],[4.43706,50.87878],[4.43405,50.88204],[4.43207,50.88438],[4.43146,50.88534],[4.43052,50.88625],[4.42991,50.88706],[4.4275,50.88927],[4.42721,50.88986],[4.42704,50.89089],[4.42778,50.89161],[4.42932,50.89288],[4.43164,50.89363],[4.43279,50.89473],[4.43123,50.89526],[4.43137,50.89566],[4.42919,50.89708],[4.42843,50.89742],[4.42676,50.89782],[4.42591,50.89851],[4.42615,50.89861],[4.42699,50.8995],[4.42779,50.8998],[4.42781,50.89996],[4.42644,50.9004],[4.42639,50.90072],[4.42606,50.9008],[4.42607,50.90103],[4.42551,50.90113],[4.42532,50.90138],[4.42498,50.90142],[4.42476,50.90174],[4.42446,50.90179],[4.42425,50.90209],[4.42296,50.90297],[4.4225,50.90257],[4.42212,50.90317],[4.42111,50.9032],[4.42063,50.90357],[4.41814,50.90391],[4.41749,50.9045],[4.41791,50.90542],[4.41444,50.90648],[4.41293,50.90669],[4.41271,50.90697],[4.41248,50.90702],[4.41245,50.90862],[4.41267,50.90894],[4.41331,50.90917],[4.41375,50.90954],[4.41376,50.91039],[4.41441,50.91126],[4.41423,50.91153],[4.40983,50.91254],[4.40633,50.91309],[4.40347,50.9139],[4.40304,50.91304],[4.40185,50.91334],[4.39907,50.91323],[4.39892,50.91214],[4.39769,50.91206],[4.3972,50.91186],[4.39489,50.91019],[4.39461,50.91037],[4.39291,50.90996],[4.38999,50.90998],[4.38926,50.91036],[4.389,50.91],[4.38852,50.91028],[4.38776,50.90994],[4.38704,50.90724],[4.38618,50.90576],[4.38295,50.9018],[4.37922,50.9008],[4.37906,50.90038],[4.37792,50.89932],[4.37801,50.89892],[4.3783,50.89854],[4.37809,50.89849],[4.37833,50.89785],[4.37822,50.89728],[4.37745,50.897],[4.3765,50.89758],[4.37578,50.89776],[4.37551,50.89796],[4.37075,50.89887],[4.36399,50.90115],[4.36249,50.90107],[4.35731,50.90137],[4.35206,50.90129],[4.3481,50.90153],[4.34436,50.90234],[4.34163,50.90239],[4.33323,50.90141],[4.33012,50.90068],[4.32342,50.89805],[4.32256,50.89747],[4.32058,50.89573],[4.31938,50.89499],[4.31814,50.89453],[4.31461,50.89361]]]],"type":"MultiPolygon"},"properties":{"name":"Bruxelles","national_code":"21004"}},{"type":"Feature","geometry":{"coordinates":[[[[4.3118,50.79751],[4.31295,50.7974],[4.31333,50.79717],[4.31372,50.79711],[4.31374,50.797],[4.31402,50.79703],[4.31398,50.79695],[4.31428,50.79673],[4.31414,50.79634],[4.31493,50.79657],[4.31526,50.79638],[4.31543,50.79645],[4.31607,50.79629],[4.3164,50.79635],[4.31661,50.79618],[4.31656,50.79605],[4.31678,50.79588],[4.31681,50.79569],[4.31724,50.79531],[4.31722,50.7952],[4.31772,50.79504],[4.31801,50.79424],[4.31792,50.79376],[4.31834,50.79329],[4.31822,50.793],[4.31835,50.7929],[4.31823,50.79269],[4.31828,50.79247],[4.31852,50.79245],[4.31877,50.79215],[4.31847,50.79184],[4.31852,50.79154],[4.31818,50.79103],[4.31821,50.79074],[4.31829,50.7906],[4.31876,50.79067],[4.31896,50.7903],[4.31923,50.79011],[4.3191,50.78992],[4.31919,50.78976],[4.31892,50.78969],[4.31921,50.78943],[4.31917,50.7891],[4.31972,50.78869],[4.31959,50.78861],[4.31964,50.78846],[4.31933,50.78837],[4.31943,50.78816],[4.31929,50.78799],[4.31954,50.78784],[4.31947,50.78766],[4.31913,50.78764],[4.31919,50.78721],[4.31936,50.78685],[4.31971,50.78683],[4.32049,50.78631],[4.3204,50.78614],[4.32066,50.78585],[4.32058,50.7857],[4.3209,50.78565],[4.32096,50.78545],[4.32123,50.78536],[4.32129,50.78509],[4.32112,50.7848],[4.32161,50.78422],[4.32165,50.784],[4.32152,50.78387],[4.32187,50.78317],[4.32319,50.7824],[4.32494,50.7809],[4.32514,50.78069],[4.32538,50.77997],[4.32674,50.77949],[4.32702,50.77908],[4.32785,50.77857],[4.32772,50.77837],[4.32845,50.77796],[4.32962,50.77755],[4.33011,50.77711],[4.33028,50.77709],[4.33089,50.77643],[4.33072,50.7763],[4.33109,50.77591],[4.33102,50.77574],[4.33121,50.77551],[4.33559,50.77447],[4.34077,50.7736],[4.3418,50.7744],[4.34395,50.7751],[4.34404,50.77539],[4.34445,50.7753],[4.34474,50.77545],[4.34714,50.77549],[4.34752,50.7753],[4.3478,50.77478],[4.34855,50.77464],[4.34881,50.7747],[4.34932,50.77447],[4.34991,50.77453],[4.3515,50.77406],[4.3523,50.77366],[4.353,50.77351],[4.35532,50.77357],[4.3629,50.77234],[4.36251,50.77191],[4.36373,50.77137],[4.36427,50.77243],[4.36421,50.7729],[4.36316,50.77307],[4.3631,50.7733],[4.38105,50.76933],[4.38111,50.76858],[4.38265,50.76873],[4.38267,50.76468],[4.38293,50.76368],[4.41261,50.77232],[4.41135,50.77391],[4.40955,50.77545],[4.40631,50.77861],[4.40019,50.7848],[4.39699,50.78822],[4.39681,50.78926],[4.40096,50.7905],[4.40255,50.79143],[4.40185,50.79165],[4.40364,50.79215],[4.40374,50.79259],[4.40354,50.79267],[4.40342,50.79292],[4.40331,50.7936],[4.40269,50.79363],[4.4019,50.79342],[4.40159,50.79391],[4.4011,50.79405],[4.4008,50.79634],[4.37538,50.79973],[4.37784,50.8002],[4.37799,50.80028],[4.37794,50.80103],[4.3758,50.80098],[4.37546,50.80127],[4.37397,50.80193],[4.37343,50.80237],[4.37323,50.80265],[4.37356,50.80271],[4.37336,50.80322],[4.37282,50.80314],[4.37239,50.80439],[4.3722,50.80563],[4.37175,50.80665],[4.37277,50.80671],[4.37299,50.80755],[4.37267,50.80832],[4.37108,50.80875],[4.37044,50.80919],[4.36975,50.80945],[4.36914,50.81055],[4.36784,50.81389],[4.36836,50.81397],[4.36831,50.8143],[4.36798,50.81523],[4.36788,50.81521],[4.36755,50.81594],[4.36814,50.81605],[4.36807,50.81622],[4.36786,50.81619],[4.3678,50.81635],[4.36729,50.81652],[4.36732,50.81668],[4.36691,50.81692],[4.36634,50.81663],[4.36361,50.81583],[4.36262,50.81578],[4.36236,50.81632],[4.36179,50.81622],[4.36049,50.81668],[4.35946,50.8165],[4.35941,50.81665],[4.35778,50.81642],[4.35796,50.81576],[4.35758,50.81572],[4.35766,50.81544],[4.35731,50.81543],[4.35752,50.81468],[4.34612,50.81421],[4.34407,50.81403],[4.34304,50.81429],[4.34291,50.81465],[4.341,50.81511],[4.34081,50.81512],[4.3407,50.81496],[4.33964,50.81506],[4.33939,50.81497],[4.33799,50.81514],[4.3377,50.815],[4.33731,50.81395],[4.33655,50.81374],[4.33587,50.81321],[4.33478,50.81297],[4.33567,50.81208],[4.33731,50.8111],[4.33656,50.80954],[4.33562,50.80964],[4.33518,50.80954],[4.33553,50.80848],[4.33245,50.80795],[4.33086,50.80633],[4.33036,50.80625],[4.32927,50.80636],[4.32827,50.80668],[4.32792,50.80566],[4.32499,50.80548],[4.32472,50.80452],[4.32432,50.8038],[4.3236,50.80312],[4.32171,50.80067],[4.31891,50.79997],[4.31789,50.79979],[4.317,50.79981],[4.31585,50.79922],[4.31496,50.79906],[4.31221,50.79815],[4.31182,50.79797],[4.3118,50.79751]]]],"type":"MultiPolygon"},"properties":{"name":"Uccle","national_code":"21016"}}]}