{"type":"FeatureCollection","crs":{"type":"name","properties":{"name":"EPSG:4326"}},"features":[{"type":"Feature","geometry":{"type":"Polygon","coordinates":[[[-6.38261,53.3337],[-6.38529,53.33625],[-6.38653,53.33834],[-6.38705,53.34052],[-6.38675,53.34357],[-6.38352,53.34277],[-6.38037,53.34394],[-6.37989,53.34513],[-6.37049,53.34362],[-6.37001,53.34387],[-6.36907,53.34627],[-6.36288,53.34529],[-6.36259,53.34677],[-6.36087,53.34693],[-6.3597,53.35312],[-6.35685,53.35229],[-6.35573,53.35375],[-6.35229,53.35374],[-6.35117,53.35487],[-6.33809,53.34692],[-6.3296,53.34639],[-6.32979,53.3455],[-6.32825,53.3452],[-6.32811,53.34217],[-6.32452,53.34169],[-6.32728,53.34119],[-6.32586,53.33869],[-6.32199,53.33944],[-6.32321,53.33978],[-6.32039,53.34033],[-6.32107,53.33954],[-6.3201,53.33939],[-6.3205,53.33894],[-6.32442,53.33679],[-6.32562,53.33517],[-6.32699,53.33491],[-6.32711,53.33448],[-6.31245,53.33618],[-6.31077,53.33068],[-6.31305,53.32977],[-6.31287,53.32737],[-6.31146,53.32711],[-6.31657,53.3257],[-6.32001,53.32283],[-6.31623,53.32048],[-6.31508,53.31913],[-6.31554,53.31756],[-6.31695,53.31632],[-6.32762,53.31709],[-6.33546,53.31688],[-6.33993,53.31831],[-6.34043,53.31893],[-6.34284,53.31917],[-6.34512,53.32061],[-6.34533,53.3219],[-6.34217,53.32163],[-6.34296,53.32301],[-6.34596,53.32587],[-6.34527,53.32755],[-6.35014,53.32959],[-6.34915,53.33027],[-6.35019,53.33074],[-6.35066,53.33178],[-6.37729,53.32854],[-6.38261,53.3337]]]},"properties":{"ENG_NAME_VALUE":"BALLYFERMOT-DRIMNAGH LEA-5"}},{"type":"Feature","geometry":{"type":"Polygon","coordinates":[[[-6.16176,53.37419],[-6.16197,53.37364],[-6.16094,53.37311],[-6.15773,53.37268],[-6.15594,53.37317],[-6.15492,53.37215],[-6.1532,53.37202],[-6.15222,53.3723],[-6.15225,53.3729],[-6.15182,53.37279],[-6.15207,53.37329],[-6.14966,53.37403],[-6.1496,53.37526],[-6.14654,53.37483],[-6.14299,53.37697],[-6.14265,53.3776],[-6.13777,53.37973],[-6.12911,53.38175],[-6.12869,53.38176],[-6.12883,53.3813],[-6.12754,53.38112],[-6.11954,53.38249],[-6.11831,53.38215],[-6.1187,53.38188],[-6.11727,53.38227],[-6.11699,53.38189],[-6.11784,53.38041],[-6.11945,53.37926],[-6.12969,53.37743],[-6.14781,53.36897],[-6.15187,53.37162],[-6.16265,53.37328],[-6.17568,53.37893],[-6.17502,53.37981],[-6.1759,53.38165],[-6.17994,53.38123],[-6.18495,53.38271],[-6.18901,53.38555],[-6.19252,53.38975],[-6.19521,53.39128],[-6.18939,53.39437],[-6.18486,53.39943],[-6.17993,53.40263],[-6.17842,53.40451],[-6.17771,53.40699],[-6.17293,53.40663],[-6.17171,53.407],[-6.17197,53.40737],[-6.17152,53.40768],[-6.16502,53.4093],[-6.15038,53.40741],[-6.14906,53.4068],[-6.14888,53.40352],[-6.15072,53.39705],[-6.1532,53.39365],[-6.15742,53.39032],[-6.15315,53.38944],[-6.14307,53.38483],[-6.1502,53.38203],[-6.1597,53.37738],[-6.16233,53.3753],[-6.16147,53.37477],[-6.16176,53.37419]]]},"properties":{"ENG_NAME_VALUE":"DONAGHMEDE LEA-5"}},{"type":"Feature","geometry":{"type":"Polygon","coordinates":[[[-6.2108,53.35364],[-6.19596,53.35315],[-6.19565,53.3505],[-6.19186,53.3505],[-6.19152,53.35039],[-6.1918,53.34983],[-6.19078,53.3498],[-6.19083,53.3505],[-6.18926,53.35054],[-6.18906,53.34852],[-6.18922,53.34795],[-6.18989,53.34807],[-6.18972,53.34644],[-6.19148,53.34653],[-6.19116,53.34828],[-6.19331,53.34835],[-6.19332,53.34526],[-6.19291,53.34516],[-6.19748,53.3449],[-6.19826,53.34546],[-6.19832,53.3481],[-6.20008,53.34805],[-6.20033,53.34511],[-6.20303,53.3452],[-6.20321,53.34468],[-6.21252,53.34544],[-6.21623,53.34892],[-6.2225,53.34908],[-6.22314,53.34949],[-6.22343,53.3488],[-6.22423,53.34895],[-6.22441,53.34847],[-6.22434,53.34901],[-6.22669,53.34933],[-6.22683,53.34826],[-6.22596,53.34832],[-6.22617,53.34713],[-6.21728,53.34648],[-6.21649,53.34566],[-6.22724,53.3465],[-6.22738,53.34556],[-6.2302,53.34615],[-6.25443,53.34787],[-6.26408,53.34614],[-6.27301,53.34531],[-6.2806,53.34644],[-6.28959,53.347],[-6.29183,53.34741],[-6.29193,53.348],[-6.29511,53.34814],[-6.29512,53.34889],[-6.29819,53.35215],[-6.29075,53.35689],[-6.27834,53.35981],[-6.27679,53.35812],[-6.27464,53.35848],[-6.27499,53.35754],[-6.27378,53.35694],[-6.27478,53.35608],[-6.27342,53.35435],[-6.27218,53.35452],[-6.26835,53.35292],[-6.25705,53.36429],[-6.25565,53.36633],[-6.25518,53.36831],[-6.25325,53.36815],[-6.25257,53.36689],[-6.25039,53.36654],[-6.2473,53.36419],[-6.24482,53.36354],[-6.24242,53.36195],[-6.23974,53.36138],[-6.23387,53.35802],[-6.23109,53.35732],[-6.22701,53.35919],[-6.21795,53.3571],[-6.21043,53.35669],[-6.2108,53.35364]]]},"properties":{"ENG_NAME_VALUE":"NORTH INNER CITY LEA-7"}},{"type":"Feature","geometry":{"type":"Polygon","coordinates":[[[-6.25159,53.39908],[-6.25216,53.39745],[-6.25121,53.39691],[-6.25176,53.39598],[-6.2516,53.3934],[-6.25307,53.39108],[-6.26391,53.39187],[-6.26525,53.38815],[-6.26502,53.38584],[-6.26584,53.38042],[-6.26527,53.37864],[-6.27627,53.37955],[-6.2767,53.37759],[-6.28534,53.37826],[-6.28708,53.37782],[-6.28754,53.37749],[-6.28647,53.37595],[-6.28749,53.37681],[-6.29026,53.37755],[-6.2941,53.37739],[-6.30168,53.37597],[-6.30439,53.37607],[-6.30549,53.37701],[-6.3086,53.37794],[-6.31431,53.3785],[-6.31553,53.37796],[-6.31812,53.37854],[-6.31986,53.37958],[-6.32204,53.37967],[-6.32167,53.38188],[-6.32102,53.38264],[-6.32224,53.38298],[-6.32113,53.38469],[-6.32021,53.3852],[-6.3199,53.38674],[-6.32107,53.38903],[-6.31921,53.39137],[-6.32124,53.39244],[-6.32051,53.39459],[-6.31913,53.39435],[-6.31979,53.39745],[-6.31918,53.39746],[-6.31836,53.40042],[-6.31421,53.39931],[-6.31102,53.40241],[-6.30853,53.40285],[-6.30812,53.40266],[-6.30813,53.40188],[-6.30291,53.40079],[-6.30279,53.40024],[-6.30109,53.40039],[-6.29132,53.39803],[-6.29063,53.39952],[-6.29152,53.40127],[-6.29186,53.40583],[-6.29169,53.40661],[-6.29087,53.40665],[-6.28255,53.40576],[-6.2716,53.40547],[-6.26965,53.4049],[-6.26853,53.40222],[-6.25159,53.39908]]]},"properties":{"ENG_NAME_VALUE":"BALLYMUN-FINGLAS LEA-6"}},{"type":"Feature","geometry":{"type":"Polygon","coordinates":[[[-6.25276,53.33206],[-6.26169,53.33019],[-6.2755,53.32971],[-6.27526,53.33312],[-6.27319,53.33587],[-6.27242,53.33768],[-6.27224,53.34209],[-6.27163,53.34284],[-6.27212,53.34528],[-6.26408,53.34614],[-6.25627,53.34777],[-6.25204,53.34784],[-6.2302,53.34615],[-6.22738,53.34556],[-6.22754,53.34461],[-6.21646,53.343],[-6.21574,53.343],[-6.21473,53.34371],[-6.21499,53.34387],[-6.19789,53.34253],[-6.19847,53.34127],[-6.19156,53.34084],[-6.15975,53.34115],[-6.1511,53.3421],[-6.15986,53.34099],[-6.17916,53.34055],[-6.17978,53.33915],[-6.1818,53.33896],[-6.18231,53.33779],[-6.18826,53.3317],[-6.18995,53.33068],[-6.19228,53.33015],[-6.19308,53.33024],[-6.19293,53.33059],[-6.18847,53.33239],[-6.18771,53.33386],[-6.1839,53.33754],[-6.19249,53.33743],[-6.19326,53.33718],[-6.19475,53.33504],[-6.20812,53.33654],[-6.20956,53.33726],[-6.21353,53.33471],[-6.22076,53.33804],[-6.22634,53.33767],[-6.22502,53.335],[-6.22541,53.33441],[-6.23216,53.3338],[-6.23537,53.33228],[-6.23812,53.33615],[-6.24033,53.33754],[-6.24558,53.33419],[-6.25276,53.33206]]]},"properties":{"ENG_NAME_VALUE":"SOUTH EAST INNER CITY LEA-5"}},{"type":"Feature","geometry":{"type":"Polygon","coordinates":[[[-6.25982,53.3063],[-6.26078,53.30602],[-6.26567,53.30672],[-6.2672,53.30538],[-6.26762,53.30433],[-6.26886,53.30373],[-6.275,53.305],[-6.28456,53.30501],[-6.28672,53.30409],[-6.2866,53.3014],[-6.29191,53.29888],[-6.29649,53.30231],[-6.29746,53.30171],[-6.29813,53.30302],[-6.2995,53.3041],[-6.30276,53.30995],[-6.29969,53.31203],[-6.31009,53.31386],[-6.31695,53.31632],[-6.31554,53.31756],[-6.31508,53.31913],[-6.31623,53.32048],[-6.32001,53.32283],[-6.31657,53.3257],[-6.31146,53.32711],[-6.31287,53.32737],[-6.31304,53.32978],[-6.31077,53.33068],[-6.31245,53.33618],[-6.30625,53.33691],[-6.29311,53.33217],[-6.27884,53.32994],[-6.27275,53.32962],[-6.26427,53.33009],[-6.26566,53.3225],[-6.26031,53.32348],[-6.25951,53.32193],[-6.25948,53.31891],[-6.25858,53.31668],[-6.25785,53.3112],[-6.26253,53.311],[-6.25899,53.30828],[-6.25966,53.3077],[-6.25982,53.3063]]]},"properties":{"ENG_NAME_VALUE":"KIMMAGE-RATHMINES LEA-6"}},{"type":"Feature","geometry":{"type":"Polygon","coordinates":[[[-6.19916,53.31274],[-6.20055,53.31181],[-6.20524,53.31226],[-6.21118,53.31106],[-6.21085,53.3107],[-6.21349,53.3112],[-6.21353,53.31221],[-6.21575,53.3116],[-6.21761,53.30993],[-6.22327,53.31159],[-6.22683,53.31117],[-6.22987,53.31421],[-6.23231,53.31333],[-6.2335,53.31482],[-6.23387,53.31417],[-6.23674,53.31453],[-6.23842,53.31334],[-6.24138,53.31362],[-6.24404,53.31254],[-6.24602,53.31241],[-6.24946,53.30819],[-6.25579,53.30775],[-6.25899,53.30828],[-6.26253,53.311],[-6.25785,53.3112],[-6.25858,53.31668],[-6.25948,53.31891],[-6.25964,53.32232],[-6.26031,53.32348],[-6.26566,53.3225],[-6.26427,53.33009],[-6.26098,53.33028],[-6.25294,53.33202],[-6.24579,53.33412],[-6.24033,53.33754],[-6.23812,53.33615],[-6.23537,53.33228],[-6.23216,53.3338],[-6.22541,53.33441],[-6.22504,53.33508],[-6.22663,53.33763],[-6.22076,53.33804],[-6.21385,53.33476],[-6.21059,53.33267],[-6.20893,53.33018],[-6.2083,53.32724],[-6.2067,53.32515],[-6.20572,53.31877],[-6.20519,53.31879],[-6.20441,53.31683],[-6.20457,53.31619],[-6.19916,53.31274]]]},"properties":{"ENG_NAME_VALUE":"PEMBROKE LEA-5"}},{"type":"Feature","geometry":{"type":"Polygon","coordinates":[[[-6.22569,53.41099],[-6.22295,53.41046],[-6.21645,53.41061],[-6.19834,53.40723],[-6.19201,53.4073],[-6.19039,53.40657],[-6.18621,53.40612],[-6.18015,53.40636],[-6.17771,53.40699],[-6.17842,53.40451],[-6.17993,53.40263],[-6.18486,53.39943],[-6.18939,53.39437],[-6.19521,53.39128],[-6.19143,53.38877],[-6.18805,53.38483],[-6.19463,53.38253],[-6.20316,53.38245],[-6.20545,53.38325],[-6.21031,53.37993],[-6.21344,53.38333],[-6.21546,53.38414],[-6.22823,53.38564],[-6.23347,53.38533],[-6.23681,53.38413],[-6.24026,53.37992],[-6.24322,53.37387],[-6.25252,53.37633],[-6.26527,53.37864],[-6.26584,53.38042],[-6.26502,53.38584],[-6.26525,53.38815],[-6.26391,53.39187],[-6.25307,53.39108],[-6.2516,53.3934],[-6.25176,53.39598],[-6.25121,53.39691],[-6.25216,53.39745],[-6.25159,53.39908],[-6.24505,53.39732],[-6.24412,53.39854],[-6.2369,53.39704],[-6.23698,53.39796],[-6.23521,53.40027],[-6.22846,53.40726],[-6.22569,53.41099]]]},"properties":{"ENG_NAME_VALUE":"ARTANE-WHITEHALL LEA-6"}},{"type":"Feature","geometry":{"type":"Polygon","coordinates":[[[-6.2755,53.32971],[-6.29267,53.33205],[-6.30625,53.33691],[-6.32711,53.33448],[-6.32699,53.33491],[-6.32558,53.3352],[-6.32479,53.33653],[-6.3201,53.33939],[-6.32107,53.33954],[-6.32039,53.34033],[-6.32321,53.33978],[-6.32199,53.33944],[-6.32586,53.33869],[-6.32728,53.34119],[-6.32452,53.34169],[-6.32811,53.34217],[-6.32825,53.3452],[-6.32979,53.3455],[-6.3296,53.34639],[-6.3208,53.34662],[-6.30908,53.3483],[-6.2951,53.34829],[-6.29193,53.348],[-6.29183,53.34741],[-6.28959,53.347],[-6.28297,53.34667],[-6.27212,53.34528],[-6.27163,53.34284],[-6.27224,53.34209],[-6.27242,53.33768],[-6.27319,53.33587],[-6.27526,53.33312],[-6.2755,53.32971]]]},"properties":{"ENG_NAME_VALUE":"SOUTH WEST INNER CITY LEA-5"}},{"type":"Feature","geometry":{"type":"Polygon","coordinates":[[[-6.35117,53.35487],[-6.35634,53.3582],[-6.34929,53.36964],[-6.33706,53.37124],[-6.33379,53.37083],[-6.33181,53.37211],[-6.33283,53.37561],[-6.33402,53.37579],[-6.33334,53.37681],[-6.33342,53.37788],[-6.33174,53.37788],[-6.32902,53.37938],[-6.32093,53.3798],[-6.31553,53.37796],[-6.31431,53.3785],[-6.30726,53.37765],[-6.30414,53.37602],[-6.30051,53.37606],[-6.2941,53.37739],[-6.29026,53.37755],[-6.28749,53.37681],[-6.28647,53.37595],[-6.28754,53.37749],[-6.28708,53.37782],[-6.28534,53.37826],[-6.2767,53.37759],[-6.27627,53.37955],[-6.26635,53.37882],[-6.25035,53.37581],[-6.25497,53.36877],[-6.25565,53.36633],[-6.25705,53.36429],[-6.26835,53.35292],[-6.27218,53.35452],[-6.27342,53.35435],[-6.27478,53.35608],[-6.27378,53.35694],[-6.27499,53.35754],[-6.27464,53.35848],[-6.27679,53.35812],[-6.27834,53.35981],[-6.29075,53.35689],[-6.29819,53.35215],[-6.29512,53.34889],[-6.2951,53.34829],[-6.30908,53.3483],[-6.31945,53.34676],[-6.32708,53.3463],[-6.33809,53.34692],[-6.35117,53.35487]]]},"properties":{"ENG_NAME_VALUE":"CABRA-GLASNEVIN LEA-7"}},{"type":"Feature","geometry":{"type":"Polygon","coordinates":[[[-6.14781,53.36897],[-6.15955,53.36304],[-6.16648,53.35813],[-6.1689,53.3543],[-6.16183,53.35068],[-6.17938,53.35925],[-6.17553,53.35836],[-6.17542,53.35882],[-6.17463,53.35885],[-6.17366,53.35953],[-6.17445,53.35975],[-6.17345,53.36134],[-6.1679,53.36551],[-6.16622,53.36587],[-6.16729,53.36572],[-6.16563,53.36699],[-6.16598,53.36712],[-6.16471,53.36855],[-6.16108,53.36943],[-6.15821,53.37157],[-6.15768,53.37214],[-6.15814,53.37239],[-6.16515,53.37271],[-6.1651,53.3714],[-6.16776,53.37023],[-6.1787,53.36242],[-6.18215,53.36084],[-6.18116,53.36015],[-6.18246,53.36074],[-6.19248,53.35807],[-6.19762,53.3594],[-6.20351,53.36025],[-6.20528,53.36025],[-6.20515,53.35926],[-6.20568,53.35939],[-6.20531,53.36024],[-6.21224,53.36046],[-6.21989,53.3629],[-6.22416,53.36068],[-6.22832,53.35991],[-6.23151,53.35832],[-6.23394,53.35812],[-6.23974,53.36138],[-6.24242,53.36195],[-6.24482,53.36354],[-6.2473,53.36419],[-6.25039,53.36654],[-6.25257,53.36689],[-6.25325,53.36815],[-6.25518,53.36831],[-6.25035,53.37581],[-6.24322,53.37387],[-6.24016,53.38008],[-6.23666,53.38428],[-6.23347,53.38533],[-6.22936,53.38567],[-6.21491,53.384],[-6.21317,53.38309],[-6.21031,53.37993],[-6.20545,53.38325],[-6.20316,53.38245],[-6.19463,53.38253],[-6.18805,53.38483],[-6.18301,53.38184],[-6.17888,53.38115],[-6.1759,53.38165],[-6.17502,53.37981],[-6.17568,53.37893],[-6.16265,53.37328],[-6.15187,53.37162],[-6.14781,53.36897]]]},"properties":{"ENG_NAME_VALUE":"CLONTARF LEA-6"}}]}
